{"fetched_at":"2026-03-30T06:02:59Z","count":15439,"tles":[{"name":"STARLINK-30701","line1":"1 57950U 23148R   26087.84045176  .00000928  00000+0  43448-4 0  9997","line2":"2 57950  53.1599 295.3637 0000826  92.5632 267.5464 15.30196066141353","category":"Starlink"}]}